start=new Date('2023-05-30T00:00:00.000Z').valueOf();
sats=[{"RA_OF_ASC_NODE":"53.0080","CENTER_NAME":"EARTH","CLASSIFICATION_TYPE":"U","OBJECT_ID":"2020-070F","DECAY_DATE":null,"RCS_SIZE":"LARGE","REF_FRAME":"TEME","PERIOD":"95.592","SITE":"AFETR","TIME_SYSTEM":"UTC","MEAN_ELEMENT_THEORY":"SGP4","TLE_LINE1":"1 46537U 20070F   23149.71615543  .00015557  00000-0  10610-2 0  9998","COUNTRY_CODE":"US","PERIAPSIS":"545.819","MEAN_ANOMALY":"265.2181","NORAD_CAT_ID":"46537","ELEMENT_SET_NO":"999","BSTAR":"0.00106100000000","ECCENTRICITY":"0.00020160","EPOCH":"2023-05-29T17:11:15.829152","ARG_OF_PERICENTER":"94.9038","SEMIMAJOR_AXIS":"6925.350","GP_ID":"232776266","MEAN_MOTION":"15.06399616","OBJECT_NAME":"STARLINK-1672","REV_AT_EPOCH":"14652","APOAPSIS":"548.611","MEAN_MOTION_DDOT":"0.0000000000000","MEAN_MOTION_DOT":"0.00015557","TLE_LINE2":"2 46537  53.0546  53.0080 0002016  94.9038 265.2181 15.06399616146527","FILE":"3920354","LAUNCH_DATE":"2020-10-06","EPHEMERIS_TYPE":"0","INCLINATION":"53.0546","OBJECT_TYPE":"PAYLOAD"},{"ECCENTRICITY":"0.00013490","BSTAR":"0.00002188300000","MEAN_MOTION":"15.06389024","GP_ID":"232777517","ARG_OF_PERICENTER":"110.7359","SEMIMAJOR_AXIS":"6925.382","EPOCH":"2023-05-29T21:26:02.243328","TLE_LINE2":"2 46538  53.0549  52.2184 0001349 110.7359 249.3774 15.06389024146543","MEAN_MOTION_DOT":"0.00000044","MEAN_MOTION_DDOT":"0.0000000000000","APOAPSIS":"548.181","REV_AT_EPOCH":"14654","OBJECT_NAME":"STARLINK-1678","INCLINATION":"53.0549","OBJECT_TYPE":"PAYLOAD","EPHEMERIS_TYPE":"0","LAUNCH_DATE":"2020-10-06","FILE":"3920354","DECAY_DATE":null,"OBJECT_ID":"2020-070G","CENTER_NAME":"EARTH","CLASSIFICATION_TYPE":"U","RA_OF_ASC_NODE":"52.2184","TIME_SYSTEM":"UTC","MEAN_ELEMENT_THEORY":"SGP4","SITE":"AFETR","PERIOD":"95.593","REF_FRAME":"TEME","RCS_SIZE":"LARGE","TLE_LINE1":"1 46538U 20070G   23149.89308152  .00000044  00000-0  21883-4 0  9994","COUNTRY_CODE":"US","ELEMENT_SET_NO":"999","NORAD_CAT_ID":"46538","MEAN_ANOMALY":"249.3774","PERIAPSIS":"546.313"},{"RA_OF_ASC_NODE":"32.0133","CLASSIFICATION_TYPE":"U","CENTER_NAME":"EARTH","OBJECT_ID":"2020-070K","DECAY_DATE":null,"RCS_SIZE":"LARGE","REF_FRAME":"TEME","PERIOD":"95.593","SITE":"AFETR","TIME_SYSTEM":"UTC","MEAN_ELEMENT_THEORY":"SGP4","TLE_LINE1":"1 46541U 20070K   23149.93915248  .00006788  00000-0  47424-3 0  9992","COUNTRY_CODE":"US","PERIAPSIS":"546.541","MEAN_ANOMALY":"293.9976","NORAD_CAT_ID":"46541","ELEMENT_SET_NO":"999","BSTAR":"0.00047424000000","ECCENTRICITY":"0.00010160","EPOCH":"2023-05-29T22:32:22.774272","ARG_OF_PERICENTER":"66.1120","SEMIMAJOR_AXIS":"6925.379","GP_ID":"232777756","MEAN_MOTION":"15.06390023","OBJECT_NAME":"STARLINK-1687","APOAPSIS":"547.948","MEAN_MOTION_DDOT":"0.0000000000000","REV_AT_EPOCH":"14683","MEAN_MOTION_DOT":"0.00006788","TLE_LINE2":"2 46541  53.0546  32.0133 0001016  66.1120 293.9976 15.06390023146837","FILE":"3920354","LAUNCH_DATE":"2020-10-06","EPHEMERIS_TYPE":"0","OBJECT_TYPE":"PAYLOAD","INCLINATION":"53.0546"},{"RA_OF_ASC_NODE":"52.2910","CLASSIFICATION_TYPE":"U","CENTER_NAME":"EARTH","OBJECT_ID":"2020-070L","DECAY_DATE":null,"RCS_SIZE":"LARGE","REF_FRAME":"TEME","PERIOD":"95.592","SITE":"AFETR","MEAN_ELEMENT_THEORY":"SGP4","TIME_SYSTEM":"UTC","COUNTRY_CODE":"US","TLE_LINE1":"1 46542U 20070L   23149.87465324  .00002413  00000-0  18085-3 0  9993","PERIAPSIS":"546.200","MEAN_ANOMALY":"272.2940","NORAD_CAT_ID":"46542","ELEMENT_SET_NO":"999","BSTAR":"0.00018085000000","ECCENTRICITY":"0.00014810","EPOCH":"2023-05-29T20:59:30.039936","SEMIMAJOR_AXIS":"6925.361","ARG_OF_PERICENTER":"87.8218","GP_ID":"232776016","MEAN_MOTION":"15.06395972","OBJECT_NAME":"STARLINK-1692","MEAN_MOTION_DDOT":"0.0000000000000","APOAPSIS":"548.252","REV_AT_EPOCH":"14654","MEAN_MOTION_DOT":"0.00002413","TLE_LINE2":"2 46542  53.0563  52.2910 0001481  87.8218 272.2940 15.06395972146545","FILE":"3920354","LAUNCH_DATE":"2020-10-06","EPHEMERIS_TYPE":"0","INCLINATION":"53.0563","OBJECT_TYPE":"PAYLOAD"},{"MEAN_MOTION":"15.06390421","GP_ID":"232776766","ARG_OF_PERICENTER":"92.3591","SEMIMAJOR_AXIS":"6925.378","EPOCH":"2023-05-29T17:27:11.211840","ECCENTRICITY":"0.00009040","BSTAR":"0.00087367000000","OBJECT_TYPE":"PAYLOAD","INCLINATION":"53.0544","EPHEMERIS_TYPE":"0","LAUNCH_DATE":"2020-10-06","FILE":"3920354","TLE_LINE2":"2 46543  53.0544  52.9594 0000904  92.3591 267.7502 15.06390421146529","MEAN_MOTION_DOT":"0.00012752","APOAPSIS":"547.869","MEAN_MOTION_DDOT":"0.0000000000000","REV_AT_EPOCH":"14652","OBJECT_NAME":"STARLINK-1693","TIME_SYSTEM":"UTC","MEAN_ELEMENT_THEORY":"SGP4","SITE":"AFETR","PERIOD":"95.593","REF_FRAME":"TEME","RCS_SIZE":"LARGE","DECAY_DATE":null,"OBJECT_ID":"2020-070M","CLASSIFICATION_TYPE":"U","CENTER_NAME":"EARTH","RA_OF_ASC_NODE":"52.9594","ELEMENT_SET_NO":"999","NORAD_CAT_ID":"46543","MEAN_ANOMALY":"267.7502","PERIAPSIS":"546.617","TLE_LINE1":"1 46543U 20070M   23149.72721310  .00012752  00000-0  87367-3 0  9994","COUNTRY_CODE":"US"},{"MEAN_MOTION":"15.06403735","GP_ID":"232777018","EPOCH":"2023-05-29T20:32:17.754720","ARG_OF_PERICENTER":"98.2540","SEMIMAJOR_AXIS":"6925.337","ECCENTRICITY":"0.00008810","BSTAR":"0.00037919000000","INCLINATION":"53.0548","OBJECT_TYPE":"PAYLOAD","FILE":"3920354","EPHEMERIS_TYPE":"0","LAUNCH_DATE":"2020-10-06","APOAPSIS":"547.812","REV_AT_EPOCH":"14675","MEAN_MOTION_DDOT":"0.0000000000000","TLE_LINE2":"2 46544  53.0548  37.3825 0000881  98.2540 261.8549 15.06403735146755","MEAN_MOTION_DOT":"0.00005372","OBJECT_NAME":"STARLINK-1694","PERIOD":"95.592","REF_FRAME":"TEME","MEAN_ELEMENT_THEORY":"SGP4","TIME_SYSTEM":"UTC","SITE":"AFETR","RCS_SIZE":"LARGE","DECAY_DATE":null,"OBJECT_ID":"2020-070N","RA_OF_ASC_NODE":"37.3825","CLASSIFICATION_TYPE":"U","CENTER_NAME":"EARTH","NORAD_CAT_ID":"46544","ELEMENT_SET_NO":"999","PERIAPSIS":"546.592","MEAN_ANOMALY":"261.8549","COUNTRY_CODE":"US","TLE_LINE1":"1 46544U 20070N   23149.85576105  .00005372  00000-0  37919-3 0  9997"},{"INCLINATION":"53.0547","OBJECT_TYPE":"PAYLOAD","EPHEMERIS_TYPE":"0","LAUNCH_DATE":"2020-10-06","FILE":"3920354","TLE_LINE2":"2 46545  53.0547  52.2045 0001392  73.7580 286.3562 15.06393967146544","MEAN_MOTION_DOT":"-0.00001893","APOAPSIS":"548.196","MEAN_MOTION_DDOT":"0.0000000000000","REV_AT_EPOCH":"14654","OBJECT_NAME":"STARLINK-1696","MEAN_MOTION":"15.06393967","GP_ID":"232777257","SEMIMAJOR_AXIS":"6925.367","ARG_OF_PERICENTER":"73.7580","EPOCH":"2023-05-29T21:31:20.876160","ECCENTRICITY":"0.00013920","BSTAR":"-0.00010825000000","ELEMENT_SET_NO":"999","NORAD_CAT_ID":"46545","MEAN_ANOMALY":"286.3562","PERIAPSIS":"546.268","COUNTRY_CODE":"US","TLE_LINE1":"1 46545U 20070P   23149.89676940 -.00001893  00000-0 -10825-3 0  9993","TIME_SYSTEM":"UTC","MEAN_ELEMENT_THEORY":"SGP4","SITE":"AFETR","PERIOD":"95.593","REF_FRAME":"TEME","RCS_SIZE":"LARGE","DECAY_DATE":null,"OBJECT_ID":"2020-070P","CLASSIFICATION_TYPE":"U","CENTER_NAME":"EARTH","RA_OF_ASC_NODE":"52.2045"},{"MEAN_MOTION_DDOT":"0.0000000000000","APOAPSIS":"547.737","REV_AT_EPOCH":"14654","TLE_LINE2":"2 46546  53.0551  52.2619 0000752  82.4055 277.7020 15.06399033146543","MEAN_MOTION_DOT":"0.00005276","OBJECT_NAME":"STARLINK-1697","OBJECT_TYPE":"PAYLOAD","INCLINATION":"53.0551","FILE":"3920354","EPHEMERIS_TYPE":"0","LAUNCH_DATE":"2020-10-06","BSTAR":"0.00037280000000","ECCENTRICITY":"0.00007520","MEAN_MOTION":"15.06399033","GP_ID":"232776516","EPOCH":"2023-05-29T21:10:06.810528","SEMIMAJOR_AXIS":"6925.352","ARG_OF_PERICENTER":"82.4055","TLE_LINE1":"1 46546U 20070Q   23149.88202327  .00005276  00000-0  37280-3 0  9998","COUNTRY_CODE":"US","NORAD_CAT_ID":"46546","ELEMENT_SET_NO":"999","PERIAPSIS":"546.696","MEAN_ANOMALY":"277.7020","DECAY_DATE":null,"OBJECT_ID":"2020-070Q","RA_OF_ASC_NODE":"52.2619","CENTER_NAME":"EARTH","CLASSIFICATION_TYPE":"U","PERIOD":"95.592","REF_FRAME":"TEME","MEAN_ELEMENT_THEORY":"SGP4","TIME_SYSTEM":"UTC","SITE":"AFETR","RCS_SIZE":"LARGE"},{"ARG_OF_PERICENTER":"97.5031","SEMIMAJOR_AXIS":"6925.280","EPOCH":"2023-05-29T02:44:43.753920","MEAN_MOTION":"15.06422221","GP_ID":"232743889","BSTAR":"0.00140240000000","ECCENTRICITY":"0.00011520","EPHEMERIS_TYPE":"0","LAUNCH_DATE":"2020-10-06","FILE":"3920065","OBJECT_TYPE":"PAYLOAD","INCLINATION":"53.0552","OBJECT_NAME":"STARLINK-1698","TLE_LINE2":"2 46547  53.0552  55.6993 0001152  97.5031 262.6089 15.06422221146435","MEAN_MOTION_DOT":"0.00020681","APOAPSIS":"547.943","REV_AT_EPOCH":"14643","MEAN_MOTION_DDOT":"0.0000000000000","RCS_SIZE":"LARGE","MEAN_ELEMENT_THEORY":"SGP4","TIME_SYSTEM":"UTC","SITE":"AFETR","PERIOD":"95.591","REF_FRAME":"TEME","CLASSIFICATION_TYPE":"U","CENTER_NAME":"EARTH","RA_OF_ASC_NODE":"55.6993","DECAY_DATE":null,"OBJECT_ID":"2020-070R","MEAN_ANOMALY":"262.6089","PERIAPSIS":"546.348","ELEMENT_SET_NO":"999","NORAD_CAT_ID":"46547","COUNTRY_CODE":"US","TLE_LINE1":"1 46547U 20070R   23149.11439530  .00020681  00000-0  14024-2 0  9990"},{"COUNTRY_CODE":"US","TLE_LINE1":"1 46548U 20070S   23149.72353101  .00016258  00000-0  11080-2 0  9991","PERIAPSIS":"546.060","MEAN_ANOMALY":"267.0649","NORAD_CAT_ID":"46548","ELEMENT_SET_NO":"999","RA_OF_ASC_NODE":"52.9741","CLASSIFICATION_TYPE":"U","CENTER_NAME":"EARTH","OBJECT_ID":"2020-070S","DECAY_DATE":null,"RCS_SIZE":"LARGE","REF_FRAME":"TEME","PERIOD":"95.592","SITE":"AFETR","MEAN_ELEMENT_THEORY":"SGP4","TIME_SYSTEM":"UTC","OBJECT_NAME":"STARLINK-1699","MEAN_MOTION_DDOT":"0.0000000000000","APOAPSIS":"548.397","REV_AT_EPOCH":"14652","MEAN_MOTION_DOT":"0.00016258","TLE_LINE2":"2 46548  53.0547  52.9741 0001687  93.0533 267.0649 15.06395025146524","FILE":"3920354","LAUNCH_DATE":"2020-10-06","EPHEMERIS_TYPE":"0","OBJECT_TYPE":"PAYLOAD","INCLINATION":"53.0547","ECCENTRICITY":"0.00016870","BSTAR":"0.00110800000000","EPOCH":"2023-05-29T17:21:53.079264","ARG_OF_PERICENTER":"93.0533","SEMIMAJOR_AXIS":"6925.364","GP_ID":"232777518","MEAN_MOTION":"15.06395025"}];
